[
    {
        "Altitude(m)": 703335.3738453005,
        "Argument of Periapsis(deg)": 0.0011390121186627068,
        "Eccentricity": 0.0,
        "Inclination(deg)": 45.0,
        "Latitude(deg)": 0.7603360667964603,
        "Longitude(deg)": 70.70648369494822,
        "Mean Anomaly(deg)": 1.1533216647480975,
        "RAAN(deg)": 169.9989248058542,
        "Satellite Name": "Constellation 1 748",
        "Satellite Number": 748,
        "Semi-Major Axis(m)": 7083131.272910544,
        "Time(s)": 19
    },
    {
        "Altitude(m)": 703330.1424128397,
        "Argument of Periapsis(deg)": 0.0011989601249081123,
        "Eccentricity": 0.0,
        "Inclination(deg)": 45.0,
        "Latitude(deg)": 0.8035490845304933,
        "Longitude(deg)": 70.74524172159059,
        "Mean Anomaly(deg)": 1.214022804997984,
        "RAAN(deg)": 169.9988682166886,
        "Satellite Name": "Constellation 1 748",
        "Satellite Number": 748,
        "Semi-Major Axis(m)": 7083131.272910544,
        "Time(s)": 20
    },
    {
        "Altitude(m)": 703324.9317391173,
        "Argument of Periapsis(deg)": 0.001258908131153518,
        "Eccentricity": 0.0,
        "Inclination(deg)": 45.0,
        "Latitude(deg)": 0.8467617072968451,
        "Longitude(deg)": 70.78400071453169,
        "Mean Anomaly(deg)": 1.274723945247896,
        "RAAN(deg)": 169.99881162752305,
        "Satellite Name": "Constellation 1 748",
        "Satellite Number": 748,
        "Semi-Major Axis(m)": 7083131.272910544,
        "Time(s)": 21
    },
    {
        "Altitude(m)": 703319.7418287497,
        "Argument of Periapsis(deg)": 0.0013188561373989236,
        "Eccentricity": 0.0,
        "Inclination(deg)": 45.0,
        "Latitude(deg)": 0.8899739101363755,
        "Longitude(deg)": 70.82276055399964,
        "Mean Anomaly(deg)": 1.3354250854977825,
        "RAAN(deg)": 169.9987550383575,
        "Satellite Name": "Constellation 1 748",
        "Satellite Number": 748,
        "Semi-Major Axis(m)": 7083131.272910544,
        "Time(s)": 22
    },
    {
        "Altitude(m)": 703314.5726862502,
        "Argument of Periapsis(deg)": 0.0013788041436443293,
        "Eccentricity": 0.0,
        "Inclination(deg)": 45.0,
        "Latitude(deg)": 0.9331856680882573,
        "Longitude(deg)": 70.8615216245161,
        "Mean Anomaly(deg)": 1.3961262257476945,
        "RAAN(deg)": 169.9986984491919,
        "Satellite Name": "Constellation 1 748",
        "Satellite Number": 748,
        "Semi-Major Axis(m)": 7083131.272910544,
        "Time(s)": 23
    },
    {
        "Altitude(m)": 703309.4243160497,
        "Argument of Periapsis(deg)": 0.001438752149889735,
        "Eccentricity": 0.0,
        "Inclination(deg)": 45.0,
        "Latitude(deg)": 0.9763969561890686,
        "Longitude(deg)": 70.90028380631423,
        "Mean Anomaly(deg)": 1.456827365997581,
        "RAAN(deg)": 169.99864186002634,
        "Satellite Name": "Constellation 1 748",
        "Satellite Number": 748,
        "Semi-Major Axis(m)": 7083131.272910544,
        "Time(s)": 24
    },
    {
        "Altitude(m)": 703304.2967224818,
        "Argument of Periapsis(deg)": 0.0014987001561351404,
        "Eccentricity": 0.0,
        "Inclination(deg)": 45.0,
        "Latitude(deg)": 1.0196077494732452,
        "Longitude(deg)": 70.93904714772701,
        "Mean Anomaly(deg)": 1.5175285062474928,
        "RAAN(deg)": 169.9985852708608,
        "Satellite Name": "Constellation 1 748",
        "Satellite Number": 748,
        "Semi-Major Axis(m)": 7083131.272910544,
        "Time(s)": 25
    },
    {
        "Altitude(m)": 703299.1899097842,
        "Argument of Periapsis(deg)": 0.001558648162380546,
        "Eccentricity": 0.0,
        "Inclination(deg)": 45.0,
        "Latitude(deg)": 1.0628180229728381,
        "Longitude(deg)": 70.97781169709023,
        "Mean Anomaly(deg)": 1.5782296464973538,
        "RAAN(deg)": 169.9985286816952,
        "Satellite Name": "Constellation 1 748",
        "Satellite Number": 748,
        "Semi-Major Axis(m)": 7083131.272910544,
        "Time(s)": 26
    },
    {
        "Altitude(m)": 703294.1038820986,
        "Argument of Periapsis(deg)": 0.0016185961686259519,
        "Eccentricity": 0.0,
        "Inclination(deg)": 45.0,
        "Latitude(deg)": 1.1060277517174935,
        "Longitude(deg)": 71.01657750274258,
        "Mean Anomaly(deg)": 1.6389307867472656,
        "RAAN(deg)": 169.99847209252962,
        "Satellite Name": "Constellation 1 748",
        "Satellite Number": 748,
        "Semi-Major Axis(m)": 7083131.272910544,
        "Time(s)": 27
    },
    {
        "Altitude(m)": 703289.0386434795,
        "Argument of Periapsis(deg)": 0.0016785441748713573,
        "Eccentricity": 0.0,
        "Inclination(deg)": 45.0,
        "Latitude(deg)": 1.1492369107342526,
        "Longitude(deg)": 71.05534461302585,
        "Mean Anomaly(deg)": 1.6996319269971778,
        "RAAN(deg)": 169.99841550336407,
        "Satellite Name": "Constellation 1 748",
        "Satellite Number": 748,
        "Semi-Major Axis(m)": 7083131.272910544,
        "Time(s)": 28
    },
    {
        "Altitude(m)": 703283.9941978893,
        "Argument of Periapsis(deg)": 0.001738492181116763,
        "Eccentricity": 0.0,
        "Inclination(deg)": 45.0,
        "Latitude(deg)": 1.1924454750475342,
        "Longitude(deg)": 71.09411307628498,
        "Mean Anomaly(deg)": 1.760333067247064,
        "RAAN(deg)": 169.9983589141985,
        "Satellite Name": "Constellation 1 748",
        "Satellite Number": 748,
        "Semi-Major Axis(m)": 7083131.272910544,
        "Time(s)": 29
    },
    {
        "Altitude(m)": 703278.970549184,
        "Argument of Periapsis(deg)": 0.0017984401873621684,
        "Eccentricity": 0.0,
        "Inclination(deg)": 45.0,
        "Latitude(deg)": 1.2356534196788904,
        "Longitude(deg)": 71.13288277277104,
        "Mean Anomaly(deg)": 1.821034207496976,
        "RAAN(deg)": 169.99830232503294,
        "Satellite Name": "Constellation 1 748",
        "Satellite Number": 748,
        "Semi-Major Axis(m)": 7083131.272910544,
        "Time(s)": 30
    },
    {
        "Altitude(m)": 703273.967701142,
        "Argument of Periapsis(deg)": 0.0018583881936075745,
        "Eccentricity": 0.0,
        "Inclination(deg)": 45.0,
        "Latitude(deg)": 1.2788607196474557,
        "Longitude(deg)": 71.17165408702968,
        "Mean Anomaly(deg)": 1.8817353477468628,
        "RAAN(deg)": 169.99824573586736,
        "Satellite Name": "Constellation 1 748",
        "Satellite Number": 748,
        "Semi-Major Axis(m)": 7083131.272910544,
        "Time(s)": 31
    },
    {
        "Altitude(m)": 703268.9856574306,
        "Argument of Periapsis(deg)": 0.0019183361998529795,
        "Eccentricity": 0.0,
        "Inclination(deg)": 45.0,
        "Latitude(deg)": 1.3220673499690465,
        "Longitude(deg)": 71.2104268993189,
        "Mean Anomaly(deg)": 1.9424364879967746,
        "RAAN(deg)": 169.99818914670178,
        "Satellite Name": "Constellation 1 748",
        "Satellite Number": 748,
        "Semi-Major Axis(m)": 7083131.272910544,
        "Time(s)": 32
    },
    {
        "Altitude(m)": 703264.0244216418,
        "Argument of Periapsis(deg)": 0.0019782842060983856,
        "Eccentricity": 0.0,
        "Inclination(deg)": 45.0,
        "Latitude(deg)": 1.365273285656609,
        "Longitude(deg)": 71.2492012579974,
        "Mean Anomaly(deg)": 2.003137628246661,
        "RAAN(deg)": 169.99813255753622,
        "Satellite Name": "Constellation 1 748",
        "Satellite Number": 748,
        "Semi-Major Axis(m)": 7083131.272910544,
        "Time(s)": 33
    },
    {
        "Altitude(m)": 703259.083997261,
        "Argument of Periapsis(deg)": 0.0020382322123437906,
        "Eccentricity": 0.0,
        "Inclination(deg)": 45.0,
        "Latitude(deg)": 1.4084785017199954,
        "Longitude(deg)": 71.2879772114273,
        "Mean Anomaly(deg)": 2.063838768496573,
        "RAAN(deg)": 169.99807596837064,
        "Satellite Name": "Constellation 1 748",
        "Satellite Number": 748,
        "Semi-Major Axis(m)": 7083131.272910544,
        "Time(s)": 34
    },
    {
        "Altitude(m)": 703254.1643876802,
        "Argument of Periapsis(deg)": 0.002098180218589197,
        "Eccentricity": 0.0,
        "Inclination(deg)": 45.0,
        "Latitude(deg)": 1.4516829731658696,
        "Longitude(deg)": 71.32675480797484,
        "Mean Anomaly(deg)": 2.1245399087464594,
        "RAAN(deg)": 169.9980193792051,
        "Satellite Name": "Constellation 1 748",
        "Satellite Number": 748,
        "Semi-Major Axis(m)": 7083131.272910544,
        "Time(s)": 35
    },
    {
        "Altitude(m)": 703249.2655962084,
        "Argument of Periapsis(deg)": 0.002158128224834602,
        "Eccentricity": 0.0,
        "Inclination(deg)": 45.0,
        "Latitude(deg)": 1.4948866749976202,
        "Longitude(deg)": 71.36553409600995,
        "Mean Anomaly(deg)": 2.1852410489963714,
        "RAAN(deg)": 169.99796279003948,
        "Satellite Name": "Constellation 1 748",
        "Satellite Number": 748,
        "Semi-Major Axis(m)": 7083131.272910544,
        "Time(s)": 36
    },
    {
        "Altitude(m)": 703244.3876260472,
        "Argument of Periapsis(deg)": 0.002218076231080008,
        "Eccentricity": 0.0,
        "Inclination(deg)": 45.0,
        "Latitude(deg)": 1.538089582215134,
        "Longitude(deg)": 71.40431495580968,
        "Mean Anomaly(deg)": 2.2459421892462834,
        "RAAN(deg)": 169.99790620087393,
        "Satellite Name": "Constellation 1 748",
        "Satellite Number": 748,
        "Semi-Major Axis(m)": 7083131.272910544,
        "Time(s)": 37
    }
]